OBJECT_NAME,OBJECT_ID,EPOCH,MEAN_MOTION,ECCENTRICITY,INCLINATION,RA_OF_ASC_NODE,ARG_OF_PERICENTER,MEAN_ANOMALY,EPHEMERIS_TYPE,CLASSIFICATION_TYPE,NORAD_CAT_ID,ELEMENT_SET_NO,REV_AT_EPOCH,BSTAR,MEAN_MOTION_DOT,MEAN_MOTION_DDOT
STARLINK-37589,2026-154W,2026-07-17T04:00:01.998720,15.80836162,.0001175,53.1618,282.8943,102.6903,51.1067,0,U,69839,999,295,.39271E-3,.77374E-3,0
STARLINK-37487,2026-154X,2026-07-17T04:00:01.998720,15.87877343,.0000688,53.1570,282.4604,83.0005,279.3012,0,U,69840,999,296,-.61828E-2,-.147867E-1,0
STARLINK-37433,2026-154Y,2026-07-17T04:00:01.998720,15.87322046,.0000897,53.1570,282.4450,79.0024,290.6219,0,U,69841,999,308,-.96066E-2,-.2205934E-1,0
STARLINK-37588,2026-154Z,2026-07-17T04:00:01.998720,15.88717610,.0000667,53.1568,282.4342,67.5899,307.2442,0,U,69842,999,299,-.41598E-2,-.1063103E-1,0
STARLINK-37579,2026-154AA,2026-07-17T04:00:01.998720,15.87318210,.0000721,53.1567,282.4200,80.8451,300.6793,0,U,69843,999,299,-.74549E-2,-.1734428E-1,0
STARLINK-37584,2026-154AB,2026-07-17T04:00:01.998720,15.87850755,.000055,53.1568,282.4088,92.8110,293.9290,0,U,69844,999,299,-.9363E-2,-.2207158E-1,0
STARLINK-37606,2026-154AC,2026-07-17T04:00:01.998720,15.86986844,.0000692,53.1567,282.3966,86.2964,306.2496,0,U,69845,999,299,-.78353E-2,-.1784532E-1,0
STARLINK-37603,2026-154AD,2026-07-17T04:00:01.998720,15.86661633,.0001002,53.1568,282.3830,77.6307,321.3618,0,U,69846,999,299,-.82374E-2,-.1837053E-1,0
STARLINK-37595,2026-154AE,2026-07-17T04:00:01.998720,15.86531340,.0000715,53.1565,282.3719,88.2874,315.7644,0,U,69847,999,299,-.83141E-2,-.1882898E-1,0
QIANFAN-219,2026-155A,2026-07-17T02:49:50.289024,14.26455163,.0030672,89.0065,60.7276,216.6012,143.3087,0,U,69848,999,165,.7829E-4,.204E-5,0
QIANFAN-220,2026-155B,2026-07-16T23:44:30.304896,14.16403044,.003539,89.0057,60.7457,221.7584,138.0902,0,U,69849,999,163,-.10535E+1,-.1953706E-1,0
QIANFAN-221,2026-155C,2026-07-17T04:29:42.012384,14.26647420,.0030488,89.0064,60.7193,216.7986,143.1116,0,U,69850,999,166,.85514E-4,.222E-5,0
QIANFAN-222,2026-155D,2026-07-17T03:04:50.518272,14.22185090,.0029483,89.0065,60.7291,217.1073,142.8081,0,U,69851,999,165,.77987E-4,.188E-5,0
QIANFAN-223,2026-155E,2026-07-17T03:01:35.700096,14.22139754,.0029234,89.0066,60.7290,216.4303,143.4899,0,U,69852,999,165,.3137E-4,.84E-6,0
QIANFAN-224,2026-155F,2026-07-17T02:58:19.883136,14.23568516,.0030113,89.0058,60.7277,216.5943,143.3192,0,U,69853,999,165,.86513E-4,.212E-5,0
QIANFAN-225,2026-155G,2026-07-17T04:36:27.770112,14.22450506,.0029135,89.0064,60.7200,217.2495,142.6677,0,U,69854,999,166,.17075E-4,.53E-6,0
QIANFAN-226,2026-155H,2026-07-17T01:11:25.218816,14.19697888,.0032995,89.0057,60.7364,217.0924,142.7986,0,U,69855,999,164,-.10507E+1,-.2062008E-1,0
QIANFAN-227,2026-155J,2026-07-16T23:25:51.050784,14.22103173,.0026882,89.0058,60.7437,217.6767,142.2542,0,U,69856,999,163,-.99223E+0,-.2035804E-1,0
QIANFAN-228,2026-155K,2026-07-16T23:26:05.307648,14.26684449,.0030569,89.0065,60.7434,217.3850,142.5218,0,U,69857,999,163,.77165E-4,.202E-5,0
QIANFAN-229,2026-155L,2026-07-17T01:07:00.573024,14.26689317,.0030613,89.0064,60.7354,216.9005,143.0083,0,U,69858,999,164,.13316E-4,.47E-6,0
QIANFAN-230,2026-155M,2026-07-17T01:25:44.772672,14.21842074,.0029215,89.0062,60.7370,217.5734,142.3417,0,U,69859,999,164,.41755E-4,.107E-5,0
QIANFAN-231,2026-155N,2026-07-17T02:52:35.408928,14.26096468,.0030687,89.0066,60.7280,216.0061,143.9066,0,U,69860,999,165,.88505E-4,.227E-5,0
QIANFAN-232,2026-155P,2026-07-17T02:47:51.283392,14.26736195,.0030494,89.0064,60.7272,217.2857,142.6220,0,U,69861,999,165,.80965E-4,.211E-5,0
QIANFAN-233,2026-155Q,2026-07-17T02:47:41.427744,14.26752102,.003039,89.0065,60.7270,217.1657,142.7433,0,U,69862,999,165,.19621E-4,.62E-6,0
QIANFAN-234,2026-155R,2026-07-17T02:47:36.859776,14.26758638,.0030412,89.0065,60.7274,217.1426,142.7664,0,U,69863,999,165,.71973E-4,.189E-5,0
QIANFAN-235,2026-155S,2026-07-17T02:47:32.764416,14.26764534,.0030362,89.0065,60.7272,217.1752,142.7340,0,U,69864,999,165,.64833E-4,.172E-5,0
QIANFAN-236,2026-155T,2026-07-17T02:47:29.228064,14.26769789,.0030339,89.0065,60.7273,217.1933,142.7160,0,U,69865,999,165,.85913E-4,.223E-5,0
QIANFAN-237,2026-155U,2026-07-17T02:47:23.345088,14.26778024,.0030313,89.0065,60.7273,217.2180,142.6913,0,U,69866,999,164,.80644E-4,.211E-5,0
QIANFAN-238,2026-155V,2026-07-17T02:47:18.217248,14.26785470,.0030292,89.0065,60.7273,217.2639,142.6454,0,U,69867,999,165,.84068E-4,.219E-5,0
CZ-8A R/B,2026-155W,2026-07-17T03:40:19.612128,14.48270563,.010631,88.9657,60.6589,96.3563,264.9763,0,U,69868,999,167,.57588E-4,.25E-5,0
