STARLINK-37589          
1 69839U 26154W   26198.16668980  .00077374  00000+0  39271-3 0  9995
2 69839  53.1618 282.8943 0001175 102.6903  51.1067 15.80836162  2958
STARLINK-37487          
1 69840U 26154X   26198.16668980 -.01478670  00000+0 -61828-2 0  9996
2 69840  53.1570 282.4604 0000688  83.0005 279.3012 15.87877343  2968
STARLINK-37433          
1 69841U 26154Y   26198.16668980 -.02205934  00000+0 -96066-2 0  9991
2 69841  53.1570 282.4450 0000897  79.0024 290.6219 15.87322046  3080
STARLINK-37588          
1 69842U 26154Z   26198.16668980 -.01063103  00000+0 -41598-2 0  9991
2 69842  53.1568 282.4342 0000667  67.5899 307.2442 15.88717610  2993
STARLINK-37579          
1 69843U 26154AA  26198.16668980 -.01734428  00000+0 -74549-2 0  9999
2 69843  53.1567 282.4200 0000721  80.8451 300.6793 15.87318210  2997
STARLINK-37584          
1 69844U 26154AB  26198.16668980 -.02207158  00000+0 -93630-2 0  9998
2 69844  53.1568 282.4088 0000550  92.8110 293.9290 15.87850755  2999
STARLINK-37606          
1 69845U 26154AC  26198.16668980 -.01784532  00000+0 -78353-2 0  9999
2 69845  53.1567 282.3966 0000692  86.2964 306.2496 15.86986844  2998
STARLINK-37603          
1 69846U 26154AD  26198.16668980 -.01837053  00000+0 -82374-2 0  9995
2 69846  53.1568 282.3830 0001002  77.6307 321.3618 15.86661633  2991
STARLINK-37595          
1 69847U 26154AE  26198.16668980 -.01882898  00000+0 -83141-2 0  9996
2 69847  53.1565 282.3719 0000715  88.2874 315.7644 15.86531340  2999
QIANFAN-219             
1 69848U 26155A   26198.11794316  .00000204  00000+0  78290-4 0  9997
2 69848  89.0065  60.7276 0030672 216.6012 143.3087 14.26455163  1654
QIANFAN-220             
1 69849U 26155B   26197.98923964 -.01953706  00000+0 -10535+1 0  9996
2 69849  89.0057  60.7457 0035390 221.7584 138.0902 14.16403044  1635
QIANFAN-221             
1 69850U 26155C   26198.18729181  .00000222  00000+0  85514-4 0  9992
2 69850  89.0064  60.7193 0030488 216.7986 143.1116 14.26647420  1661
QIANFAN-222             
1 69851U 26155D   26198.12836248  .00000188  00000+0  77987-4 0  9996
2 69851  89.0065  60.7291 0029483 217.1073 142.8081 14.22185090  1659
QIANFAN-223             
1 69852U 26155E   26198.12610764  .00000084  00000+0  31370-4 0  9991
2 69852  89.0066  60.7290 0029234 216.4303 143.4899 14.22139754  1652
QIANFAN-224             
1 69853U 26155F   26198.12384124  .00000212  00000+0  86513-4 0  9992
2 69853  89.0058  60.7277 0030113 216.5943 143.3192 14.23568516  1656
QIANFAN-225             
1 69854U 26155G   26198.19198808  .00000053  00000+0  17075-4 0  9992
2 69854  89.0064  60.7200 0029135 217.2495 142.6677 14.22450506  1661
QIANFAN-226             
1 69855U 26155H   26198.04959744 -.02062008  00000+0 -10507+1 0  9992
2 69855  89.0057  60.7364 0032995 217.0924 142.7986 14.19697888  1642
QIANFAN-227             
1 69856U 26155J   26197.97628531 -.02035804  00000+0 -99223+0 0  9996
2 69856  89.0058  60.7437 0026882 217.6767 142.2542 14.22103173  1639
QIANFAN-228             
1 69857U 26155K   26197.97645032  .00000202  00000+0  77165-4 0  9998
2 69857  89.0065  60.7434 0030569 217.3850 142.5218 14.26684449  1639
QIANFAN-229             
1 69858U 26155L   26198.04653441  .00000047  00000+0  13316-4 0  9996
2 69858  89.0064  60.7354 0030613 216.9005 143.0083 14.26689317  1643
QIANFAN-230             
1 69859U 26155M   26198.05954598  .00000107  00000+0  41755-4 0  9990
2 69859  89.0062  60.7370 0029215 217.5734 142.3417 14.21842074  1641
QIANFAN-231             
1 69860U 26155N   26198.11985427  .00000227  00000+0  88505-4 0  9991
2 69860  89.0066  60.7280 0030687 216.0061 143.9066 14.26096468  1650
QIANFAN-232             
1 69861U 26155P   26198.11656578  .00000211  00000+0  80965-4 0  9999
2 69861  89.0064  60.7272 0030494 217.2857 142.6220 14.26736195  1658
QIANFAN-233             
1 69862U 26155Q   26198.11645171  .00000062  00000+0  19621-4 0  9992
2 69862  89.0065  60.7270 0030390 217.1657 142.7433 14.26752102  1653
QIANFAN-234             
1 69863U 26155R   26198.11639884  .00000189  00000+0  71973-4 0  9995
2 69863  89.0065  60.7274 0030412 217.1426 142.7664 14.26758638  1653
QIANFAN-235             
1 69864U 26155S   26198.11635144  .00000172  00000+0  64833-4 0  9990
2 69864  89.0065  60.7272 0030362 217.1752 142.7340 14.26764534  1651
QIANFAN-236             
1 69865U 26155T   26198.11631051  .00000223  00000+0  85913-4 0  9993
2 69865  89.0065  60.7273 0030339 217.1933 142.7160 14.26769789  1655
QIANFAN-237             
1 69866U 26155U   26198.11624242  .00000211  00000+0  80644-4 0  9991
2 69866  89.0065  60.7273 0030313 217.2180 142.6913 14.26778024  1649
QIANFAN-238             
1 69867U 26155V   26198.11618307  .00000219  00000+0  84068-4 0  9999
2 69867  89.0065  60.7273 0030292 217.2639 142.6454 14.26785470  1659
CZ-8A R/B               
1 69868U 26155W   26198.15300477  .00000250  00000+0  57588-4 0  9992
2 69868  88.9657  60.6589 0106310  96.3563 264.9763 14.48270563  1670
